NORAD_CAT_ID,OBJECT_NAME,OBJECT_TYPE,EPOCH,MEAN_MOTION,ECCENTRICITY,INCLINATION,RA_OF_ASC_NODE,ARG_OF_PERICENTER,MEAN_ANOMALY,BSTAR,MEAN_MOTION_DOT,MEAN_MOTION_DDOT,TLE_LINE0,TLE_LINE1,TLE_LINE2,SEMIMAJOR_AXIS,PERIOD,APOGEE,PERIGEE,DECAYED
53640.0,STARLINK-4597,PAYLOAD,2023-02-12 20:57:32,15.08851457,0.000101,53.2167,215.4029,89.1255,270.9853,0.00010824,1.436e-05,0.0,0 STARLINK-4597,1 53640U 22104BE  23043.87329626  .00001436  00000-0  10824-3 0  9994,2 53640  53.2167 215.4029 0001010  89.1255 270.9853 15.08851457 26005,6917.845,95.437,540.409,539.012,0.0
53640.0,STARLINK-4597,PAYLOAD,2023-02-13 04:54:29,15.08841509,0.0001197,53.2164,213.9163,80.6474,279.4654,7.9653e-05,9.8e-06,0.0,0 STARLINK-4597,1 53640U 22104BE  23044.20450360  .00000980  00000-0  79653-4 0  9991,2 53640  53.2164 213.9163 0001197  80.6474 279.4654 15.08841509 26054,6917.876,95.437,540.569,538.913,0.0
53640.0,STARLINK-4597,PAYLOAD,2023-02-13 22:23:43,15.08849084,0.0001239,53.2178,210.6441,85.788,274.3254,9.2787e-05,1.189e-05,0.0,0 STARLINK-4597,1 53640U 22104BE  23044.93313835  .00001189  00000-0  92787-4 0  9991,2 53640  53.2178 210.6441 0001239  85.7880 274.3254 15.08849084 27187,6917.853,95.437,540.575,538.861,0.0
53640.0,STARLINK-4597,PAYLOAD,2023-02-14 22:14:30,15.08841455,0.000137,53.2164,206.1822,94.1518,265.9631,-1.3465e-05,-5.02e-06,0.0,0 STARLINK-4597,1 53640U 22104BE  23045.92674478 -.00000502  00000-0 -13465-4 0  9990,2 53640  53.2164 206.1822 0001370  94.1518 265.9631 15.08841455 26316,6917.876,95.437,540.689,538.793,0.0
53640.0,STARLINK-4597,PAYLOAD,2023-02-15 12:32:58,15.08841663,0.0001851,53.2132,203.5043,113.8129,246.3057,7.248e-05,8.66e-06,0.0,0 STARLINK-4597,1 53640U 22104BE  23046.52290256  .00000866  00000-0  72480-4 0  9998,2 53640  53.2132 203.5043 0001851 113.8129 246.3057 15.08841663 27427,6917.875,95.437,541.021,538.46,0.0
53640.0,STARLINK-4597,PAYLOAD,2023-02-15 20:29:53,15.08856042,9.76e-05,53.2203,202.0234,105.7134,254.3966,0.00015078,2.114e-05,0.0,0 STARLINK-4597,1 53640U 22104BE  23046.85409042  .00002114  00000-0  15078-3 0  9996,2 53640  53.2203 202.0234 0000976 105.7134 254.3966 15.08856042 26452,6917.831,95.437,540.372,539.021,0.0
53640.0,STARLINK-4597,PAYLOAD,2023-02-16 20:20:41,15.08842406,0.0001574,53.2124,197.5557,91.4471,268.6702,0.00010218,1.339e-05,0.0,0 STARLINK-4597,1 53640U 22104BE  23047.84770052  .00001339  00000-0  10218-3 0  9997,2 53640  53.2124 197.5557 0001574  91.4471 268.6702 15.08842406 26602,6917.873,95.437,540.827,538.649,0.0
53640.0,STARLINK-4597,PAYLOAD,2023-02-17 12:14:34,15.08833966,0.0001251,53.2176,194.5883,89.7214,270.3921,-7.1236e-05,-1.421e-05,0.0,0 STARLINK-4597,1 53640U 22104BE  23048.51011614 -.00001421  00000-0 -71236-4 0  9996,2 53640  53.2176 194.5883 0001251  89.7214 270.3921 15.08833966 26700,6917.899,95.438,540.629,538.898,0.0
53640.0,STARLINK-4597,PAYLOAD,2023-02-17 18:36:05,15.08841832,0.0001585,53.2175,193.3997,93.7925,266.3248,-3.8383e-06,-3.49e-06,0.0,0 STARLINK-4597,1 53640U 22104BE  23048.77506872 -.00000349  00000-0 -38383-5 0  9994,2 53640  53.2175 193.3997 0001585  93.7925 266.3248 15.08841832 26748,6917.875,95.437,540.836,538.643,0.0
53640.0,STARLINK-4597,PAYLOAD,2023-02-18 12:05:21,15.08829001,9.09e-05,53.217,190.1241,70.6198,289.4893,-4.6677e-05,-1.03e-05,0.0,0 STARLINK-4597,1 53640U 22104BE  23049.50371882 -.00001030  00000-0 -46677-4 0  9999,2 53640  53.2170 190.1241 0000909  70.6198 289.4893 15.08829001 27876,6917.914,95.438,540.408,539.15,0.0
53640.0,STARLINK-4597,PAYLOAD,2023-02-19 02:23:49,15.08837218,0.0001127,53.2176,187.4497,74.4578,285.6539,1.4464e-05,-5.8e-07,0.0,0 STARLINK-4597,1 53640U 22104BE  23050.09987429 -.00000058  00000-0  14464-4 0  9992,2 53640  53.2176 187.4497 0001127  74.4578 285.6539 15.08837218 26942,6917.889,95.438,540.534,538.974,0.0
53640.0,STARLINK-4597,PAYLOAD,2023-02-19 15:06:53,15.08844767,0.000116,53.2175,185.0731,76.8575,283.2546,0.00015025,2.104e-05,0.0,0 STARLINK-4597,1 53640U 22104BE  23050.62979033  .00002104  00000-0  15025-3 0  9999,2 53640  53.2175 185.0731 0001160  76.8575 283.2546 15.08844767 28048,6917.866,95.437,540.533,538.928,0.0
53640.0,STARLINK-4597,PAYLOAD,2023-02-19 18:17:39,15.08849881,0.0001276,53.2175,184.4788,74.2326,285.8807,0.00019582,2.831e-05,0.0,0 STARLINK-4597,1 53640U 22104BE  23050.76226573  .00002831  00000-0  19582-3 0  9997,2 53640  53.2175 184.4788 0001276  74.2326 285.8807 15.08849881 27046,6917.85,95.437,540.598,538.832,0.0
53640.0,STARLINK-4597,PAYLOAD,2023-02-20 14:57:41,15.08839398,0.000117,53.2172,180.6124,75.7787,284.3335,6.1411e-05,6.9e-06,0.0,0 STARLINK-4597,1 53640U 22104BE  23051.62339614  .00000690  00000-0  61411-4 0  9994,2 53640  53.2172 180.6124 0001170  75.7787 284.3335 15.08839398 28194,6917.882,95.438,540.557,538.938,0.0
53640.0,STARLINK-4597,PAYLOAD,2023-02-20 19:43:49,15.08852649,0.0001276,53.2172,179.7197,73.4696,286.6436,0.00016137,2.282e-05,0.0,0 STARLINK-4597,1 53640U 22104BE  23051.82210426  .00002282  00000-0  16137-3 0  9998,2 53640  53.2172 179.7197 0001276  73.4696 286.6436 15.08852649 27206,6917.842,95.437,540.589,538.824,0.0
53640.0,STARLINK-4597,PAYLOAD,2023-02-21 14:48:26,15.08863013,0.0001301,53.2168,176.1513,76.6063,283.5074,0.00010873,1.444e-05,0.0,0 STARLINK-4597,1 53640U 22104BE  23052.61697527  .00001444  00000-0  10873-3 0  9997,2 53640  53.2168 176.1513 0001301  76.6063 283.5074 15.08863013 28343,6917.81,95.436,540.575,538.775,0.0
53640.0,STARLINK-4597,PAYLOAD,2023-02-21 19:34:35,15.08872286,0.0001407,53.2182,175.2575,82.4136,277.7016,0.0002004,2.906e-05,0.0,0 STARLINK-4597,1 53640U 22104BE  23052.81568650  .00002906  00000-0  20040-3 0  9994,2 53640  53.2182 175.2575 0001407  82.4136 277.7016 15.08872286 28376,6917.782,95.436,540.62,538.673,0.0
53640.0,STARLINK-4597,PAYLOAD,2023-02-22 11:28:29,15.08836742,0.0001525,53.2185,172.2851,84.2807,275.8359,-7.891e-05,-1.544e-05,0.0,0 STARLINK-4597,1 53640U 22104BE  23053.47811416 -.00001544  00000-0 -78910-4 0  9997,2 53640  53.2185 172.2851 0001525  84.2807 275.8359 15.08836742 27453,6917.89,95.438,540.81,538.7,0.0
53640.0,STARLINK-4597,PAYLOAD,2023-02-22 13:03:52,15.08837571,0.0001605,53.2184,171.9877,83.1011,277.0164,-7.5625e-05,-1.491e-05,0.0,0 STARLINK-4597,1 53640U 22104BE  23053.54435305 -.00001491  00000-0 -75625-4 0  9995,2 53640  53.2184 171.9877 0001605  83.1011 277.0164 15.08837571 28483,6917.888,95.438,540.863,538.642,0.0
53640.0,STARLINK-4597,PAYLOAD,2023-02-22 19:25:23,15.08846938,0.0001579,53.2185,170.7966,91.174,268.9433,-1.166e-05,-4.74e-06,0.0,0 STARLINK-4597,1 53640U 22104BE  23053.80930402 -.00000474  00000-0 -11660-4 0  9991,2 53640  53.2185 170.7966 0001579  91.1740 268.9433 15.08846938 28528,6917.859,95.437,540.817,538.632,0.0
53640.0,STARLINK-4597,PAYLOAD,2023-02-23 00:11:34,15.08824144,9.85e-05,53.22,169.9077,107.9594,252.1506,-0.00017856,-3.127e-05,0.0,0 STARLINK-4597,1 53640U 22104BE  23054.00804107 -.00003127  00000-0 -17856-3 0  9996,2 53640  53.2200 169.9077 0000985 107.9594 252.1506 15.08824144 27533,6917.929,95.439,540.475,539.112,0.0
53640.0,STARLINK-4597,PAYLOAD,2023-02-23 11:19:16,15.08835977,0.0001153,53.2198,167.8233,92.1473,267.9651,-0.00013767,-2.478e-05,0.0,0 STARLINK-4597,1 53640U 22104BE  23054.47171650 -.00002478  00000-0 -13767-3 0  9992,2 53640  53.2198 167.8233 0001153  92.1473 267.9651 15.08835977 27608,6917.893,95.438,540.555,538.96,0.0
53640.0,STARLINK-4597,PAYLOAD,2023-02-23 19:16:10,15.08847719,0.0001498,53.2184,166.3349,103.2265,256.8894,2.7107e-05,1.44e-06,0.0,0 STARLINK-4597,1 53640U 22104BE  23054.80290213  .00000144  00000-0  27107-4 0  9996,2 53640  53.2184 166.3349 0001498 103.2265 256.8894 15.08847719 27658,6917.857,95.437,540.758,538.686,0.0
53640.0,STARLINK-4597,PAYLOAD,2023-02-24 00:02:21,15.08826197,0.0001382,53.2184,165.4452,104.4353,255.6793,-0.0002933,-4.951e-05,0.0,0 STARLINK-4597,1 53640U 22104BE  23055.00163247 -.00004951  00000-0 -29330-3 0  9996,2 53640  53.2184 165.4452 0001382 104.4353 255.6793 15.08826197 27681,6917.923,95.438,540.744,538.832,0.0
53640.0,STARLINK-4597,PAYLOAD,2023-02-24 11:10:02,15.088381,0.0001278,53.2181,163.3677,103.1495,256.964,2.8386e-05,1.64e-06,0.0,0 STARLINK-4597,1 53640U 22104BE  23055.46531214  .00000164  00000-0  28386-4 0  9990,2 53640  53.2181 163.3677 0001278 103.1495 256.9640 15.08838100 28774,6917.886,95.438,540.635,538.867,0.0
53640.0,STARLINK-4597,PAYLOAD,2023-02-24 12:45:26,15.08840193,0.0001322,53.2183,163.0713,101.6516,258.4624,4.9254e-05,4.96e-06,0.0,0 STARLINK-4597,1 53640U 22104BE  23055.53155151  .00000496  00000-0  49254-4 0  9995,2 53640  53.2183 163.0713 0001322 101.6516 258.4624 15.08840193 27763,6917.88,95.438,540.659,538.83,0.0
53640.0,STARLINK-4597,PAYLOAD,2023-02-24 15:56:12,15.08845881,0.0001654,53.2188,162.4779,118.8556,241.2602,0.00012681,1.731e-05,0.0,0 STARLINK-4597,1 53640U 22104BE  23055.66402871  .00001731  00000-0  12681-3 0  9999,2 53640  53.2188 162.4779 0001654 118.8556 241.2602 15.08845881 28806,6917.862,95.437,540.872,538.583,0.0
53640.0,STARLINK-4597,PAYLOAD,2023-02-25 06:14:41,15.08828934,0.0001177,53.2185,159.7997,99.2392,260.8734,0.00019844,2.871e-05,0.0,0 STARLINK-4597,1 53640U 22104BE  23056.26020035  .00002871  00000-0  19844-3 0  9998,2 53640  53.2185 159.7997 0001177  99.2392 260.8734 15.08828934 27873,6917.914,95.438,540.593,538.965,0.0
53640.0,STARLINK-4597,PAYLOAD,2023-02-25 12:36:14,15.08828911,0.0001615,53.2188,158.6095,95.1881,264.9295,-0.00013097,-2.371e-05,0.0,0 STARLINK-4597,1 53640U 22104BE  23056.52516389 -.00002371  00000-0 -13097-3 0  9990,2 53640  53.2188 158.6095 0001615  95.1881 264.9295 15.08828911 28938,6917.914,95.438,540.897,538.662,0.0
53640.0,STARLINK-4597,PAYLOAD,2023-02-25 15:47:00,15.08838333,0.0001077,53.2185,158.0152,85.8395,274.272,-2.4675e-05,-6.8e-06,0.0,0 STARLINK-4597,1 53640U 22104BE  23056.65764315 -.00000680  00000-0 -24675-4 0  9994,2 53640  53.2185 158.0152 0001077  85.8395 274.2720 15.08838333 28959,6917.885,95.438,540.496,539.005,0.0
